{
    "links": {
        "self": "http://www.neowsapp.com/rest/v1/neo/3601612?api_key=iIulBulltgU6a56xZRHN4H3l9WmuAYTsLGpBGhQ2"
    },
    "id": "3601612",
    "neo_reference_id": "3601612",
    "name": "(2012 FT23)",
    "designation": "2012 FT23",
    "nasa_jpl_url": "http://ssd.jpl.nasa.gov/sbdb.cgi?sstr=3601612",
    "absolute_magnitude_h": 24.2,
    "estimated_diameter": {
        "kilometers": {
            "estimated_diameter_min": 0.0384197891,
            "estimated_diameter_max": 0.0859092601
        },
        "meters": {
            "estimated_diameter_min": 38.4197891064,
            "estimated_diameter_max": 85.9092601232
        },
        "miles": {
            "estimated_diameter_min": 0.0238729428,
            "estimated_diameter_max": 0.0533815229
        },
        "feet": {
            "estimated_diameter_min": 126.0491808919,
            "estimated_diameter_max": 281.8545369825
        }
    },
    "is_potentially_hazardous_asteroid": false,
    "close_approach_data": [
        {
            "close_approach_date": "2012-03-16",
            "close_approach_date_full": "2012-Mar-16 08:10",
            "epoch_date_close_approach": 1331885400000,
            "relative_velocity": {
                "kilometers_per_second": "11.3828216859",
                "kilometers_per_hour": "40978.158069177",
                "miles_per_hour": "25462.2338291506"
            },
            "miss_distance": {
                "astronomical": "0.1104899444",
                "lunar": "42.9805883716",
                "kilometers": "16529060.338658428",
                "miles": "10270681.8365971864"
            },
            "orbiting_body": "Earth"
        }
    ],
    "orbital_data": {
        "orbit_id": "5",
        "orbit_determination_date": "2017-04-06 08:50:24",
        "first_observation_date": "2012-03-23",
        "last_observation_date": "2012-03-24",
        "data_arc_in_days": 1,
        "observations_used": 20,
        "orbit_uncertainty": "9",
        "minimum_orbit_intersection": ".0885916",
        "jupiter_tisserand_invariant": "4.228",
        "epoch_osculation": "2456009.5",
        "eccentricity": ".3770817022084164",
        "semi_major_axis": "1.609202598849654",
        "inclination": "15.05688159410154",
        "ascending_node_longitude": "3.149517026440236",
        "orbital_period": "745.6147912102085",
        "perihelion_distance": "1.002401743677219",
        "perihelion_argument": "130.3444403936297",
        "aphelion_distance": "2.216003454022089",
        "perihelion_time": "2455968.140270658276",
        "mean_anomaly": "19.96943024541327",
        "mean_motion": ".482823039783966",
        "equinox": "J2000",
        "orbit_class": {
            "orbit_class_type": "APO",
            "orbit_class_description": "Near-Earth asteroid orbits which cross the Earth’s orbit similar to that of 1862 Apollo",
            "orbit_class_range": "a (semi-major axis) > 1.0 AU; q (perihelion) < 1.017 AU"
        }
    },
    "is_sentry_object": false
}